{
    "links": {
        "self": "http://www.neowsapp.com/rest/v1/neo/3696195?api_key=iIulBulltgU6a56xZRHN4H3l9WmuAYTsLGpBGhQ2"
    },
    "id": "3696195",
    "neo_reference_id": "3696195",
    "name": "(2014 WP4)",
    "designation": "2014 WP4",
    "nasa_jpl_url": "http://ssd.jpl.nasa.gov/sbdb.cgi?sstr=3696195",
    "absolute_magnitude_h": 24.3,
    "estimated_diameter": {
        "kilometers": {
            "estimated_diameter_min": 0.0366906138,
            "estimated_diameter_max": 0.0820427065
        },
        "meters": {
            "estimated_diameter_min": 36.6906137531,
            "estimated_diameter_max": 82.0427064882
        },
        "miles": {
            "estimated_diameter_min": 0.0227984834,
            "estimated_diameter_max": 0.0509789586
        },
        "feet": {
            "estimated_diameter_min": 120.3760332259,
            "estimated_diameter_max": 269.1689931548
        }
    },
    "is_potentially_hazardous_asteroid": false,
    "close_approach_data": [
        {
            "close_approach_date": "2014-11-22",
            "close_approach_date_full": "2014-Nov-22 21:57",
            "epoch_date_close_approach": 1416693420000,
            "relative_velocity": {
                "kilometers_per_second": "8.0733191073",
                "kilometers_per_hour": "29063.9487862146",
                "miles_per_hour": "18059.2075110787"
            },
            "miss_distance": {
                "astronomical": "0.0427570022",
                "lunar": "16.6324738558",
                "kilometers": "6396356.456705314",
                "miles": "3974511.6016447732"
            },
            "orbiting_body": "Earth"
        }
    ],
    "orbital_data": {
        "orbit_id": "10",
        "orbit_determination_date": "2017-04-06 08:37:31",
        "first_observation_date": "2014-11-16",
        "last_observation_date": "2014-12-21",
        "data_arc_in_days": 35,
        "observations_used": 55,
        "orbit_uncertainty": "7",
        "minimum_orbit_intersection": ".0429482",
        "jupiter_tisserand_invariant": "3.317",
        "epoch_osculation": "2459000.5",
        "eccentricity": ".5616223297046187",
        "semi_major_axis": "2.348093218448891",
        "inclination": "8.0203909435611",
        "ascending_node_longitude": "63.2176357128393",
        "orbital_period": "1314.230156194075",
        "perihelion_distance": "1.029351634740008",
        "perihelion_argument": "1.808694626173206",
        "aphelion_distance": "3.666834802157772",
        "perihelion_time": "2459614.249865152540",
        "mean_anomaly": "191.8787996048036",
        "mean_motion": ".2739246229462095",
        "equinox": "J2000",
        "orbit_class": {
            "orbit_class_type": "AMO",
            "orbit_class_description": "Near-Earth asteroid orbits similar to that of 1221 Amor",
            "orbit_class_range": "1.017 AU < q (perihelion) < 1.3 AU"
        }
    },
    "is_sentry_object": false
}